ONEWEB-0283             
1 49001U 21060AL  24185.01792272 -.00000014  00000+0 -69506-4 0  9999
2 49001  87.9098  10.9688 0002038  83.4356 276.7007 13.16595240146962
ONEWEB-0284             
1 49002U 21060AM  24184.93559276 -.00000019  00000+0 -83464-4 0  9999
2 49002  87.9092  10.9680 0001742  81.6025 278.5304 13.16595402145614
ONEWEB-0285             
1 49075U 21075A   24184.87051963 -.00000110  00000+0 -34220-3 0  9995
2 49075  87.8950 132.9045 0002066  79.5239 280.6122 13.12440556141511
ONEWEB-0286             
1 49076U 21075B   24184.91824503  .00000387  00000+0  10415-2 0  9992
2 49076  87.8947 132.8972 0001902  89.4115 270.7231 13.12445467140872
ONEWEB-0287             
1 49077U 21075C   24185.44303178  .00000047  00000+0  87851-4 0  9995
2 49077  87.9177 147.9625 0001760  83.9050 276.2282 13.17648595140600
ONEWEB-0288             
1 49078U 21075D   24184.90445041  .00000051  00000+0  10604-3 0  9998
2 49078  87.8946 132.9038 0001879  80.4403 279.6938 13.12445778141497
ONEWEB-0289             
1 49079U 21075E   24184.94054997  .00000052  00000+0  99579-4 0  9999
2 49079  87.9178 148.0896 0002138  81.4413 278.6961 13.17647851140144
ONEWEB-0290             
1 49080U 21075F   24185.45433338  .00000019  00000+0  16285-4 0  9994
2 49080  87.9178 147.9486 0001649  76.4902 283.6413 13.17649544140602
